OBJECT_NAME,OBJECT_ID,EPOCH,MEAN_MOTION,ECCENTRICITY,INCLINATION,RA_OF_ASC_NODE,ARG_OF_PERICENTER,MEAN_ANOMALY,EPHEMERIS_TYPE,CLASSIFICATION_TYPE,NORAD_CAT_ID,ELEMENT_SET_NO,REV_AT_EPOCH,BSTAR,MEAN_MOTION_DOT,MEAN_MOTION_DDOT
SAUDISAT 2,2004-025F,2026-06-18T22:51:14.953824,14.56684729,.0023538,98.5507,169.9798,292.5681,67.3025,0,U,28371,999,16600,.50287E-4,.175E-5,0
COSMOS 2407,2004-028A,2026-06-19T06:11:15.411264,13.76334912,.00378764,82.9607,73.3007,245.9340,229.1618,0,U,28380,999,10016,.5007305E-4,.64E-6,0
COSMOS 2414,2005-002A,2026-06-19T01:12:58.584384,13.87926665,.00393652,82.9497,42.2369,325.8686,33.9947,0,U,28521,999,8407,.25576599E-4,.46E-6,0
INMARSAT 4-F1,2005-009A,2026-06-18T18:54:06.097248,1.00271302,.0002613,5.1714,42.7664,44.2002,281.6887,0,U,28628,999,7768,0,.24E-6,0
SJ-7,2005-024A,2026-06-19T07:50:18.348000,15.21570278,.00161371,97.7280,200.4878,30.9436,329.2747,0,U,28737,999,14835,.28966178E-3,.6479E-4,0
CUBESAT XI-V,2005-043F,2026-06-19T04:03:39.770784,14.72636023,.00137886,98.2987,325.8325,194.2954,165.7865,0,U,28895,999,10204,.1780152E-3,.1082E-4,0
HINODE (SOLAR-B),2006-041A,2026-06-19T07:08:20.300352,14.68625500,.00159708,98.0545,186.4188,282.4723,77.4695,0,U,29479,999,5518,.96286931E-4,.511E-5,0
SHIJIAN-6 02B (SJ-6 02B),2006-046B,2026-06-19T08:17:52.187424,15.01381082,.00154177,97.7152,199.3915,54.3304,305.9353,0,U,29506,999,7106,.68083491E-4,.819E-5,0
DMSP 5D-3 F17 (USA 191),2006-050A,2026-06-19T05:17:15.986688,14.14993128,.00111037,98.7378,176.7489,54.1161,306.1042,0,U,29522,999,1271,.15709994E-4,-.13E-6,0
LAPAN-TUBSAT,2007-001A,2026-06-19T06:35:16.128672,14.85950020,.00120583,98.1339,169.5456,172.6781,187.4612,0,U,29709,999,5146,.16384962E-4,.85E-6,0
HAIYANG-1B,2007-010A,2026-06-18T21:25:38.949024,14.31027257,.0013124,98.3495,151.6719,191.1687,168.9207,0,U,31113,999,88,.41153E-4,.67E-6,0
COSMO-SKYMED 2,2007-059A,2026-06-19T07:42:47.442816,14.82156504,.00013557,97.8886,353.8883,87.9253,272.2115,0,U,32376,999,232,.41988042E-4,.282E-5,0
CARTOSAT-2A,2008-021A,2026-06-19T06:41:25.151712,14.79240036,.00132301,97.7627,218.9163,102.8136,257.4555,0,U,32783,999,97911,.30953186E-4,.18E-5,0
CUTE-1.7+APD II (CO-65),2008-021C,2026-06-19T05:41:58.909632,15.09467527,.00095505,97.8277,151.6986,32.2622,327.9188,0,U,32785,999,98550,.3022279E-3,.4777E-4,0
SEEDS II (CO-66),2008-021J,2026-06-18T10:35:22.532928,15.32786684,.000089,97.7517,167.3987,357.5135,2.6101,0,U,32791,999,98748,.44622E-3,.14056E-3,0
YUBILEINY (RS30),2008-025A,2026-06-19T06:30:46.329120,12.43179633,.00187793,82.5038,354.1428,309.1385,50.8025,0,U,32953,999,81995,.34284187E-3,.57E-6,0
FENGYUN 3A,2008-026A,2026-06-19T02:11:32.954496,14.19571471,.00096537,98.6883,110.8889,118.6525,241.5623,0,U,32958,999,93567,.48869029E-4,.6E-6,0
HUANJING 1A (HJ-1A),2008-041A,2026-06-19T06:09:28.353024,14.83991742,.00201526,97.6684,156.0154,128.3103,231.9927,0,U,33320,999,95871,.18170488E-3,.1466E-4,0
HUANJING 1B (HJ-1B),2008-041B,2026-06-19T07:03:25.768800,14.83319388,.00362038,97.6520,159.2168,173.9722,186.1936,0,U,33321,999,95872,.56725284E-4,.418E-5,0
SHIJIAN-6 03A (SJ-6 03A),2008-053A,2026-06-19T06:59:22.657344,15.17181066,.00114052,97.8405,203.6851,13.4967,346.6568,0,U,33408,999,96328,.13705516E-3,.2652E-4,0
SHIJIAN-6 03B (SJ-6 03B),2008-053B,2026-06-19T07:04:38.160768,15.04309250,.00205951,97.8566,190.2221,38.1719,322.0961,0,U,33409,999,96306,.36741219E-4,.449E-5,0
