
CARTOSAT-2A
1 32783U 08021A   26170.27876333  .00000180  00000+0  30953-4 0  9991
2 32783  97.7627 218.9163 0013230 102.8136 257.4555 14.79240036979119

COSMO-SKYMED 2
1 32376U 07059A   26170.32138244  .00000282  00000+0  41988-4 0  9990
2 32376  97.8886 353.8883 0001355  87.9253 272.2115 14.82156504  2328

COSMOS 2407
1 28380U 04028A   26170.25781726  .00000064  00000+0  50073-4 0  9997
2 28380  82.9607  73.3007 0037876 245.9340 229.1618 13.76334912100169

COSMOS 2414
1 28521U 05002A   26170.05067806  .00000046  00000+0  25577-4 0  9992
2 28521  82.9497  42.2369 0039365 325.8686  33.9947 13.87926665 84076

CUBESAT XI-V
1 28895U 05043F   26170.16921031  .00001082  00000+0  17802-3 0  9994
2 28895  98.2987 325.8325 0013788 194.2954 165.7865 14.72636023102045

CUTE-1.7+APD II (CO-65)
1 32785U 08021C   26170.23748738  .00004777  00000+0  30223-3 0  9991
2 32785  97.8277 151.6986 0009550  32.2622 327.9188 15.09467527985500

DMSP 5D-3 F17 (USA 191)
1 29522U 06050A   26170.22032392 -.00000013  00000+0  15710-4 0  9992
2 29522  98.7378 176.7489 0011103  54.1161 306.1042 14.14993128 12719

FENGYUN 3A
1 32958U 08026A   26170.09135364  .00000060  00000+0  48869-4 0  9994
2 32958  98.6883 110.8889 0009653 118.6525 241.5623 14.19571471935670

HAIYANG-1B
1 31113U 07010A   26169.89281191  .00000067  00000+0  41153-4 0  9990
2 31113  98.3495 151.6719 0013124 191.1687 168.9207 14.31027257   884

HINODE (SOLAR-B)
1 29479U 06041A   26170.29745718  .00000511  00000+0  96287-4 0  9993
2 29479  98.0545 186.4188 0015970 282.4723  77.4695 14.68625500 55184

HUANJING 1A (HJ-1A)
1 33320U 08041A   26170.25657816  .00001466  00000+0  18170-3 0  9996
2 33320  97.6684 156.0154 0020152 128.3103 231.9927 14.83991742958714

HUANJING 1B (HJ-1B)
1 33321U 08041B   26170.29404825  .00000418  00000+0  56725-4 0  9996
2 33321  97.6520 159.2168 0036203 173.9722 186.1936 14.83319388958723

INMARSAT 4-F1
1 28628U 05009A   26169.78757057  .00000024  00000+0  00000+0 0  9994
2 28628   5.1714  42.7664 0002613  44.2002 281.6887  1.00271302 77683

LAPAN-TUBSAT
1 29709U 07001A   26170.27449223  .00000085  00000+0  16385-4 0  9993
2 29709  98.1339 169.5456 0012058 172.6781 187.4612 14.85950020 51465

SAUDISAT 2
1 28371U 04025F   26169.95225641  .00000175  00000+0  50287-4 0  9998
2 28371  98.5507 169.9798 0023538 292.5681  67.3025 14.56684729166008

SEEDS II (CO-66)
1 32791U 08021J   26169.44123302  .00014056  00000+0  44622-3 0  9992
2 32791  97.7517 167.3987 0000890 357.5135   2.6101 15.32786684987483

SHIJIAN-6 02B (SJ-6 02B)
1 29506U 06046B   26170.34574291  .00000819  00000+0  68083-4 0  9995
2 29506  97.7152 199.3915 0015417  54.3304 305.9353 15.01381082 71060

SHIJIAN-6 03A (SJ-6 03A)
1 33408U 08053A   26170.29123446  .00002652  00000+0  13706-3 0  9995
2 33408  97.8405 203.6851 0011405  13.4967 346.6568 15.17181066963281

SHIJIAN-6 03B (SJ-6 03B)
1 33409U 08053B   26170.29488612  .00000449  00000+0  36741-4 0  9992
2 33409  97.8566 190.2221 0020595  38.1719 322.0961 15.04309250963065

SJ-7
1 28737U 05024A   26170.32660125  .00006479  00000+0  28966-3 0  9998
2 28737  97.7280 200.4878 0016137  30.9436 329.2747 15.21570278148357

YUBILEINY (RS30)
1 32953U 08025A   26170.27136955  .00000057  00000+0  34284-3 0  9996
2 32953  82.5038 354.1428 0018779 309.1385  50.8025 12.43179633819959
